{
  "type": "FeatureCollection",
  "features": [
    {
      "type": "Feature",
      "properties": {
        "OBJECT_NAME": "GPS BIIF-5  (PRN 30)",
        "OBJECT_ID": "2014-008A",
        "EPOCH": "2025-11-29T05:57:39.103200",
        "MEAN_MOTION": 2.00573621,
        "ECCENTRICITY": 0.0078883,
        "INCLINATION": 53.629,
        "RA_OF_ASC_NODE": 157.4751,
        "ARG_OF_PERICENTER": 226.3092,
        "MEAN_ANOMALY": 133.082,
        "EPHEMERIS_TYPE": 0,
        "CLASSIFICATION_TYPE": "U",
        "NORAD_CAT_ID": 39533,
        "ELEMENT_SET_NO": 999,
        "REV_AT_EPOCH": 8567,
        "BSTAR": 0,
        "MEAN_MOTION_DOT": 1.23e-06,
        "MEAN_MOTION_DDOT": 0,
        "norad_id": 39533,
        "name": "GPS BIIF-5  (PRN 30)",
        "group": "gps-ops",
        "longitude_deg": NaN,
        "latitude_deg": NaN,
        "alt_km": NaN,
        "orbit_class": "HEO",
        "timestamp": "2025-11-30T08:43:09.300459+00:00"
      },
      "geometry": {
        "type": "Point",
        "coordinates": [
          NaN,
          NaN
        ]
      }
    },
    {
      "type": "Feature",
      "properties": {
        "OBJECT_NAME": "GPS BIIF-6  (PRN 06)",
        "OBJECT_ID": "2014-026A",
        "EPOCH": "2025-11-30T00:42:01.113984",
        "MEAN_MOTION": 2.00562134,
        "ECCENTRICITY": 0.003881,
        "INCLINATION": 56.5883,
        "RA_OF_ASC_NODE": 339.2712,
        "ARG_OF_PERICENTER": 318.0175,
        "MEAN_ANOMALY": 41.7196,
        "EPHEMERIS_TYPE": 0,
        "CLASSIFICATION_TYPE": "U",
        "NORAD_CAT_ID": 39741,
        "ELEMENT_SET_NO": 999,
        "REV_AT_EPOCH": 8454,
        "BSTAR": 0,
        "MEAN_MOTION_DOT": -4.9e-07,
        "MEAN_MOTION_DDOT": 0,
        "norad_id": 39741,
        "name": "GPS BIIF-6  (PRN 06)",
        "group": "gps-ops",
        "longitude_deg": NaN,
        "latitude_deg": NaN,
        "alt_km": NaN,
        "orbit_class": "HEO",
        "timestamp": "2025-11-30T08:43:09.300557+00:00"
      },
      "geometry": {
        "type": "Point",
        "coordinates": [
          NaN,
          NaN
        ]
      }
    },
    {
      "type": "Feature",
      "properties": {
        "OBJECT_NAME": "GPS BIIF-7  (PRN 09)",
        "OBJECT_ID": "2014-045A",
        "EPOCH": "2025-11-29T14:51:13.385088",
        "MEAN_MOTION": 2.0057166,
        "ECCENTRICITY": 0.0032979,
        "INCLINATION": 55.2207,
        "RA_OF_ASC_NODE": 96.4226,
        "ARG_OF_PERICENTER": 119.5514,
        "MEAN_ANOMALY": 240.766,
        "EPHEMERIS_TYPE": 0,
        "CLASSIFICATION_TYPE": "U",
        "NORAD_CAT_ID": 40105,
        "ELEMENT_SET_NO": 999,
        "REV_AT_EPOCH": 8207,
        "BSTAR": 0,
        "MEAN_MOTION_DOT": 3.3e-07,
        "MEAN_MOTION_DDOT": 0,
        "norad_id": 40105,
        "name": "GPS BIIF-7  (PRN 09)",
        "group": "gps-ops",
        "longitude_deg": NaN,
        "latitude_deg": NaN,
        "alt_km": NaN,
        "orbit_class": "HEO",
        "timestamp": "2025-11-30T08:43:09.300899+00:00"
      },
      "geometry": {
        "type": "Point",
        "coordinates": [
          NaN,
          NaN
        ]
      }
    },
    {
      "type": "Feature",
      "properties": {
        "OBJECT_NAME": "GPS BIIF-8  (PRN 03)",
        "OBJECT_ID": "2014-068A",
        "EPOCH": "2025-11-28T23:56:27.172608",
        "MEAN_MOTION": 2.00563936,
        "ECCENTRICITY": 0.00608524,
        "INCLINATION": 56.847,
        "RA_OF_ASC_NODE": 38.6778,
        "ARG_OF_PERICENTER": 69.4861,
        "MEAN_ANOMALY": 291.2145,
        "EPHEMERIS_TYPE": 0,
        "CLASSIFICATION_TYPE": "U",
        "NORAD_CAT_ID": 40294,
        "ELEMENT_SET_NO": 999,
        "REV_AT_EPOCH": 8119,
        "BSTAR": 0,
        "MEAN_MOTION_DOT": -6e-07,
        "MEAN_MOTION_DDOT": 0,
        "norad_id": 40294,
        "name": "GPS BIIF-8  (PRN 03)",
        "group": "gps-ops",
        "longitude_deg": NaN,
        "latitude_deg": NaN,
        "alt_km": NaN,
        "orbit_class": "HEO",
        "timestamp": "2025-11-30T08:43:09.301105+00:00"
      },
      "geometry": {
        "type": "Point",
        "coordinates": [
          NaN,
          NaN
        ]
      }
    },
    {
      "type": "Feature",
      "properties": {
        "OBJECT_NAME": "GPS BIIF-9  (PRN 26)",
        "OBJECT_ID": "2015-013A",
        "EPOCH": "2025-11-30T02:59:43.742976",
        "MEAN_MOTION": 2.00563289,
        "ECCENTRICITY": 0.0106477,
        "INCLINATION": 53.2,
        "RA_OF_ASC_NODE": 212.4127,
        "ARG_OF_PERICENTER": 38.1641,
        "MEAN_ANOMALY": 322.6698,
        "EPHEMERIS_TYPE": 0,
        "CLASSIFICATION_TYPE": "U",
        "NORAD_CAT_ID": 40534,
        "ELEMENT_SET_NO": 999,
        "REV_AT_EPOCH": 7783,
        "BSTAR": 0,
        "MEAN_MOTION_DOT": 5.7e-07,
        "MEAN_MOTION_DDOT": 0,
        "norad_id": 40534,
        "name": "GPS BIIF-9  (PRN 26)",
        "group": "gps-ops",
        "longitude_deg": NaN,
        "latitude_deg": NaN,
        "alt_km": NaN,
        "orbit_class": "HEO",
        "timestamp": "2025-11-30T08:43:09.301319+00:00"
      },
      "geometry": {
        "type": "Point",
        "coordinates": [
          NaN,
          NaN
        ]
      }
    },
    {
      "type": "Feature",
      "properties": {
        "OBJECT_NAME": "GPS BIIF-10 (PRN 08)",
        "OBJECT_ID": "2015-033A",
        "EPOCH": "2025-11-28T18:58:19.116192",
        "MEAN_MOTION": 2.00566196,
        "ECCENTRICITY": 0.01100954,
        "INCLINATION": 54.1429,
        "RA_OF_ASC_NODE": 275.347,
        "ARG_OF_PERICENTER": 26.4688,
        "MEAN_ANOMALY": 334.0941,
        "EPHEMERIS_TYPE": 0,
        "CLASSIFICATION_TYPE": "U",
        "NORAD_CAT_ID": 40730,
        "ELEMENT_SET_NO": 999,
        "REV_AT_EPOCH": 7597,
        "BSTAR": 0,
        "MEAN_MOTION_DOT": -3.2e-07,
        "MEAN_MOTION_DDOT": 0,
        "norad_id": 40730,
        "name": "GPS BIIF-10 (PRN 08)",
        "group": "gps-ops",
        "longitude_deg": NaN,
        "latitude_deg": NaN,
        "alt_km": NaN,
        "orbit_class": "HEO",
        "timestamp": "2025-11-30T08:43:09.301451+00:00"
      },
      "geometry": {
        "type": "Point",
        "coordinates": [
          NaN,
          NaN
        ]
      }
    },
    {
      "type": "Feature",
      "properties": {
        "OBJECT_NAME": "GPS BIIF-11 (PRN 10)",
        "OBJECT_ID": "2015-062A",
        "EPOCH": "2025-11-29T20:19:38.444736",
        "MEAN_MOTION": 2.00566933,
        "ECCENTRICITY": 0.0110435,
        "INCLINATION": 56.8229,
        "RA_OF_ASC_NODE": 38.5012,
        "ARG_OF_PERICENTER": 229.5951,
        "MEAN_ANOMALY": 129.4841,
        "EPHEMERIS_TYPE": 0,
        "CLASSIFICATION_TYPE": "U",
        "NORAD_CAT_ID": 41019,
        "ELEMENT_SET_NO": 999,
        "REV_AT_EPOCH": 7383,
        "BSTAR": 0,
        "MEAN_MOTION_DOT": -6.2e-07,
        "MEAN_MOTION_DDOT": 0,
        "norad_id": 41019,
        "name": "GPS BIIF-11 (PRN 10)",
        "group": "gps-ops",
        "longitude_deg": NaN,
        "latitude_deg": NaN,
        "alt_km": NaN,
        "orbit_class": "HEO",
        "timestamp": "2025-11-30T08:43:09.301761+00:00"
      },
      "geometry": {
        "type": "Point",
        "coordinates": [
          NaN,
          NaN
        ]
      }
    },
    {
      "type": "Feature",
      "properties": {
        "OBJECT_NAME": "GPS BIIF-12 (PRN 32)",
        "OBJECT_ID": "2016-007A",
        "EPOCH": "2025-11-29T22:18:04.286592",
        "MEAN_MOTION": 2.00561276,
        "ECCENTRICITY": 0.0091544,
        "INCLINATION": 55.3987,
        "RA_OF_ASC_NODE": 97.3656,
        "ARG_OF_PERICENTER": 243.2609,
        "MEAN_ANOMALY": 115.788,
        "EPHEMERIS_TYPE": 0,
        "CLASSIFICATION_TYPE": "U",
        "NORAD_CAT_ID": 41328,
        "ELEMENT_SET_NO": 999,
        "REV_AT_EPOCH": 7184,
        "BSTAR": 0,
        "MEAN_MOTION_DOT": 3.3e-07,
        "MEAN_MOTION_DDOT": 0,
        "norad_id": 41328,
        "name": "GPS BIIF-12 (PRN 32)",
        "group": "gps-ops",
        "longitude_deg": NaN,
        "latitude_deg": NaN,
        "alt_km": NaN,
        "orbit_class": "HEO",
        "timestamp": "2025-11-30T08:43:09.301972+00:00"
      },
      "geometry": {
        "type": "Point",
        "coordinates": [
          NaN,
          NaN
        ]
      }
    }
  ]
}