NAVSTAR 69 (USA 248)    
1 39533U 14008A   25333.24836925  .00000123  00000+0  00000+0 0  9995
2 39533  53.6290 157.4751 0078883 226.3092 133.0820  2.00573621 85677
NAVSTAR 70 (USA 251)    
1 39741U 14026A   25334.02917956 -.00000049  00000+0  00000+0 0  9995
2 39741  56.5883 339.2712 0038810 318.0175  41.7196  2.00562134 84545
NAVSTAR 71 (USA 256)    
1 40105U 14045A   25333.61890492  .00000033  00000+0  00000+0 0  9993
2 40105  55.2207  96.4226 0032979 119.5514 240.7660  2.00571660 82077
NAVSTAR 72 (USA 258)    
1 40294U 14068A   25332.99753672 -.00000060  00000+0  00000+0 0  9996
2 40294  56.8470  38.6778 0060852  69.4861 291.2145  2.00563936 81192
NAVSTAR 73 (USA 260)    
1 40534U 15013A   25334.12481184  .00000057  00000+0  00000+0 0  9992
2 40534  53.2000 212.4127 0106477  38.1641 322.6698  2.00563289 77831
NAVSTAR 74 (USA 262)    
1 40730U 15033A   25332.79049903 -.00000032  00000+0  00000+0 0  9996
2 40730  54.1429 275.3470 0110095  26.4688 334.0941  2.00566196 75976
NAVSTAR 75 (USA 265)    
1 41019U 15062A   25333.84697274 -.00000062  00000+0  00000+0 0  9999
2 41019  56.8229  38.5012 0110435 229.5951 129.4841  2.00566933 73839
NAVSTAR 76 (USA 266)    
1 41328U 16007A   25333.92921628  .00000033  00000+0  00000+0 0  9991
2 41328  55.3987  97.3656 0091544 243.2609 115.7880  2.00561276 71841
